P/2010 H5 (Scotti),e,14.0712,24.8109,175.3452,7.155538,0.0514921,0.15414351,191.3569,06/16.0/2020,2000,g 13.0,2.0
# From MPC 98558
P/2010 J3 (McMillan),e,13.2912,106.4040,157.5681,8.967627,0.0367018,0.72754613,131.3132,06/16.0/2020,2000,g 11.0,4.0
# From MPC 84315
P/2010 JC81 (WISE),e,38.6888,30.8377,12.4565,8.112757,0.0426532,0.77640325,142.7353,06/16.0/2020,2000,g  9.0,4.0
# From MPC 74248
P/2010 T2 (PANSTARRS),e,7.9391,59.2053,353.9939,5.500436,0.0764027,0.32168900,254.4088,06/16.0/2020,2000,g 11.5,4.0
# From MPC 98558
P/2010 TO20 (LINEAR-Grauer),e,2.4794,43.3005,266.7548,5.827736,0.0700574,0.05417469,297.8756,06/16.0/2020,2000,g  9.0,4.0
# From MPC 82316
P/2010 U1 (Boattini),e,8.2138,280.7221,85.8610,6.514058,0.0592825,0.24760588,225.2429,06/16.0/2020,2000,g  9.5,4.0
# From MPC119994
C/2010 U3 (Boattini),e,55.5160,43.0447,88.0784,2657,0.0000072,0.99682195,0.0000,02/26.1711/2019,2000,g  1.0,4.0
# From MPC 79021
P/2010 UH55 (Spacewatch),e,8.0516,233.0410,225.1865,6.649338,0.0574826,0.56371040,192.3883,06/16.0/2020,2000,g 11.0,4.0
# From MPC 75009
P/2010 WK (LINEAR),e,11.3999,11.3107,41.0090,5.759071,0.0713141,0.68961845,253.1675,06/16.0/2020,2000,g 14.5,2.0
# From MPC 82317
P/2011 A2 (Scotti),e,4.4753,54.6738,94.5496,3.104763,0.1801613,0.49938252,263.8410,06/16.0/2020,2000,g 16.5,4.0
# From MPC 84021
P/2011 C2 (Gibbs),e,10.8860,12.1207,161.0883,7.414056,0.0488225,0.26918153,150.6003,06/16.0/2020,2000,g  9.0,4.0
# From MPC 79866
P/2011 FR143 (Lemmon),e,15.9933,190.9485,350.1616,6.854866,0.0549168,0.45136422,186.1831,06/16.0/2020,2000,g 14.0,2.0
# From MPC 82317
P/2011 JB15 (Spacewatch-Boattini),e,19.1460,153.6077,110.9388,7.351718,0.0494448,0.31841573,151.5811,06/16.0/2020,2000,g  9.0,4.0
# From MPEC 2020-AA5
C/2011 KP36 (Spacewatch),e,18.9830,173.3160,180.6157,38.77197,0.0040825,0.87416759,6.0450,06/16.0/2020,2000,g  4.5,4.0
# From MPC 87913
P/2011 N1 (ASH),e,35.7058,77.6089,330.3480,6.251200,0.0630607,0.54337352,186.0452,06/16.0/2020,2000,g 11.5,4.0
# From MPC 75714
P/2011 NO1 (Elenin),e,15.2491,295.7883,263.8467,5.522205,0.0759513,0.77509709,260.5981,06/16.0/2020,2000,g 15.0,4.0
# From MPC 82318
P/2011 P1 (McNaught),e,5.6561,4.2436,348.8678,7.471016,0.0482653,0.32655970,174.8429,06/16.0/2020,2000,g  9.0,4.0
# From MPC 77806
P/2011 Q3 (McNaught),e,6.0559,32.0242,310.9608,4.970764,0.0889343,0.53240013,289.3335,06/16.0/2020,2000,g 13.5,4.0
# From MPC 90269
P/2011 R3 (Novichonok-Gerke),e,19.2451,189.7255,224.9764,4.781376,0.0942703,0.27155952,281.3184,06/16.0/2020,2000,g 11.0,4.0
# From MPC 98558
P/2011 S1 (Gibbs),e,2.6834,218.9193,192.5746,8.590516,0.0391449,0.19992211,83.5738,06/16.0/2020,2000,g  8.0,4.0
# From MPC115880
P/2011 U2 (Bressi),e,9.9608,263.5304,153.0203,4.913791,0.0904855,0.13286691,257.0134,06/16.0/2020,2000,g 10.0,4.0
# From MPC 79022
P/2011 UA134 (Spacewatch-PANSTARRS),e,10.4457,40.4398,32.4760,5.602171,0.0743309,0.62929755,232.9425,06/16.0/2020,2000,g 17.5,4.0
# From MPC 77406
P/2011 V1 (Boattini),e,7.3780,46.8592,269.2190,3.854055,0.1302649,0.55062440,81.1461,06/16.0/2020,2000,g 15.5,4.0
# From MPC 82718
P/2011 W1 (PANSTARRS),e,3.7186,161.7902,282.7274,4.659785,0.0979840,0.28689543,301.0359,06/16.0/2020,2000,g 11.5,4.0
# From MPC 79342
P/2011 Y2 (Boattini),e,6.3713,309.3691,131.9501,6.239679,0.0632355,0.70916375,191.1323,06/16.0/2020,2000,g 15.0,4.0
# From MPC 94669
P/2012 B1 (PANSTARRS),e,7.6173,36.1933,162.6012,6.526351,0.0591151,0.41013829,149.0521,06/16.0/2020,2000,g  9.0,4.0
# From MPC 78590
P/2012 C3 (PANSTARRS),e,9.0920,135.3677,344.9542,9.748681,0.0323806,0.63011148,359.9758,10/06.0/2011,2000,g 13.0,4.0
# From MPC 84931
P/2012 F2 (PANSTARRS),e,14.7305,227.0690,33.2284,6.327419,0.0619247,0.54300428,162.2783,06/16.0/2020,2000,g 12.0,4.0
# From MPC 79344
P/2012 G1 (PANSTARRS),e,11.6925,282.5440,286.1149,4.172871,0.1156250,0.38072240,359.9500,06/01.0/2012,2000,g 15.0,4.0
# From MPC 80898
P/2012 K3 (Gibbs),e,13.1946,125.8091,172.1223,3.624103,0.1428576,0.42350211,43.3623,06/16.0/2020,2000,g 15.0,4.0
# From MPC112389
C/2012 LP26 (Palomar),h,08/18.7838/2015,25.3443,153.9299,145.3399,1.003530,6.543980,2000,6.5,4.0
# From MPC 88326
P/2012 NJ (La Sagra),e,84.6459,315.5555,338.3142,8.457257,0.0400737,0.84747710,117.2272,06/16.0/2020,2000,g 14.5,4.0
# From MPC 81470
P/2012 O1 (McNaught),e,7.4334,91.9849,238.2055,3.539621,0.1480024,0.59450321,69.8014,06/16.0/2020,2000,g 17.5,4.0
# From MPC 80899
P/2012 O2 (McNaught),e,24.4864,120.6788,183.3814,3.622141,0.1429737,0.53283418,58.1762,06/16.0/2020,2000,g 17.0,4.0
# From MPC 82720
P/2012 O3 (McNaught),e,16.6125,336.4064,344.6906,4.575961,0.1006887,0.64685725,288.2304,06/16.0/2020,2000,g 16.5,4.0
# From MPC 82720
P/2012 S2 (La Sagra),e,8.6874,51.1928,312.5092,4.410068,0.1064231,0.69110792,306.4852,06/16.0/2020,2000,g 17.0,4.0
# From MPC 82720
P/2012 SB6 (Lemmon),e,10.9287,8.2099,14.3973,3.825346,0.1317340,0.40480015,359.5403,06/16.0/2020,2000,g 14.0,4.0
# From MPC 82320
P/2012 T2 (PANSTARRS),e,12.5550,73.7344,310.4372,5.739081,0.0716870,0.16045227,187.4790,06/16.0/2020,2000,g 10.0,4.0
# From MPC 80900
P/2012 T3 (PANSTARRS),e,9.5687,114.4081,195.4282,6.152893,0.0645781,0.61713564,191.7103,06/16.0/2020,2000,g 15.0,4.0
# From MPC 87914
P/2012 TK8 (Tenagra),e,6.3405,288.9706,127.8094,4.130950,0.1173895,0.27434628,301.7482,06/16.0/2020,2000,g 13.0,4.0
# From MPC 82720
P/2012 U2 (PANSTARRS),e,10.7465,185.2643,228.3514,7.144481,0.0516117,0.49751176,143.3497,06/16.0/2020,2000,g 12.5,4.0
# From MPC 84024
P/2012 US27 (Siding Spring),e,39.3239,49.1686,0.8295,5.166155,0.0839369,0.64728100,226.5454,06/16.0/2020,2000,g 13.5,4.0
# From MPC 82721
P/2012 WA34 (Lemmon-PANSTARRS),e,6.1210,94.4910,352.8953,4.769653,0.0946180,0.34125959,254.9003,06/16.0/2020,2000,g 13.5,4.0
# From MPC 84024
P/2013 A2 (Scotti),e,3.3614,355.8161,134.5554,4.013001,0.1226028,0.45433253,329.9829,06/16.0/2020,2000,g 15.5,4.0
# From MPC 82721
P/2013 AL76 (Catalina),e,144.7970,145.9439,27.1371,6.498209,0.0594995,0.68608490,163.2024,06/16.0/2020,2000,g 16.0,4.0
# From MPC115880
C/2013 C2 (Tenagra),e,21.3380,247.5296,309.5458,16.01411,0.0153798,0.42814807,26.7168,06/16.0/2020,2000,g  4.0,4.0
# From MPC 88695
P/2013 EW90 (Tenagra),e,31.7867,160.2987,346.3698,4.116298,0.1180168,0.19493934,331.0973,06/16.0/2020,2000,g 12.0,4.0
# From MPC 91612
P/2013 G1 (Kowalski),e,5.4697,221.4199,51.3407,6.885578,0.0545498,0.51340376,129.6312,06/16.0/2020,2000,g 11.0,4.0
# From MPC 84025
P/2013 G4 (PANSTARRS),e,5.9161,339.6493,214.7290,4.438760,0.1053930,0.40975112,282.6965,06/16.0/2020,2000,g 15.0,4.0
# From MPC 91613
P/2013 J2 (McNaught),e,15.5362,289.4301,37.7128,6.223683,0.0634794,0.65734691,157.7894,06/16.0/2020,2000,g 13.0,4.0
# From MPC 87066
P/2013 J4 (PANSTARRS),e,5.0352,84.0011,118.7706,2.475100,0.2531133,0.23099371,359.9443,11/04.0/2013,2000,g 14.0,4.0
# From MPC 86229
P/2013 N3 (PANSTARRS),e,2.1727,17.5114,323.8273,7.390721,0.0490539,0.59287617,113.5063,06/16.0/2020,2000,g 13.0,4.0
# From MPC 85834
P/2013 N5 (PANSTARRS),e,23.4069,187.1737,176.8798,6.800263,0.0555796,0.73153475,141.2754,06/16.0/2020,2000,g 17.0,4.0
# From MPC 87479
P/2013 O2 (PANSTARRS),e,13.3171,207.1603,214.2216,3.790732,0.1335425,0.44684300,314.5195,06/16.0/2020,2000,g 14.0,4.0
# From MPC 85834
P/2013 P1 (PANSTARRS),e,18.7177,160.6380,138.0478,8.565783,0.0393146,0.60618928,104.7137,06/16.0/2020,2000,g 12.0,4.0
# From MPC 94671
P/2013 R3 (Catalina-PANSTARRS),e,0.8653,342.0012,11.1487,3.034004,0.1865004,0.27495075,103.9550,06/16.0/2020,2000,g 14.0,4.0
# From unp
P/2013 R3-A (Catalina-PANSTARRS),e,0.8647,341.9680,11.1876,3.033863,0.1865134,0.27492010,103.9851,06/16.0/2020,2000,g  9.0,4.0
# From MPEC 2015-M77
P/2013 R3-B (Catalina-PANSTARRS),e,0.8660,342.0239,11.1225,3.034081,0.1864934,0.27496583,103.9389,06/16.0/2020,2000,g  9.0,4.0
# From MPC 85835
P/2013 T1 (PANSTARRS),e,24.2640,10.0952,346.0655,5.862549,0.0694343,0.62330676,174.4026,06/16.0/2020,2000,g 16.5,4.0
# From MPC 86643
P/2013 T2 (Schwartz),e,9.4560,0.8227,345.4575,3.488395,0.1512745,0.50108978,30.0203,06/16.0/2020,2000,g 16.0,4.0
# From MPC 88696
P/2013 TL117 (Lemmon),e,9.3649,3.3153,112.2505,3.609305,0.1437371,0.68916436,332.5188,06/16.0/2020,2000,g 17.5,4.0
# From MPC110080
C/2013 US10 (Catalina),h,11/16.6360/2015,148.7844,186.3680,340.5810,1.000623,0.822137,2000,4.4,4.0
# From MPC111767
C/2013 V4 (Catalina),e,67.8797,55.6159,40.3388,3465,0.0000048,0.99850470,0.0000,10/05.5750/2015,2000,g  6.0,4.0
# From MPC 91613
P/2013 W1 (PANSTARRS),e,4.6955,117.8480,1.3006,3.490803,0.1511180,0.59282566,346.9557,06/16.0/2020,2000,g 17.5,4.0
# From MPC111767
C/2013 X1 (PANSTARRS),h,04/19.5196/2016,163.1928,131.5779,165.1393,1.000376,1.321265,2000,10.5,2.0
# From MPC101095
P/2013 YG46 (Spacewatch),e,7.8562,48.8801,242.4678,3.276589,0.1661771,0.45491406,204.8140,06/16.0/2020,2000,g 10.0,4.0
# From MPC 89728
P/2014 A2 (Hill),e,24.5473,106.6277,356.2754,5.925560,0.0683298,0.64573737,166.2591,06/16.0/2020,2000,g 15.0,4.0
# From MPC 92981
P/2014 A3 (PANSTARRS),e,13.6807,230.2830,212.5548,4.635224,0.0987638,0.24601270,257.7980,06/16.0/2020,2000,g 12.0,4.0
# From MPC108592
C/2014 A4 (SONEAR),e,121.3783,29.6734,356.5813,2760,0.0000068,0.99848799,0.0000,09/04.0100/2015,2000,g  6.0,4.0
# From MPC119994
C/2014 B1 (Schwartz),e,28.4015,161.4072,345.8164,26924,0.0000002,0.99964509,0.0000,09/09.6983/2017,2000,g  4.0,4.0
# From MPC102095
P/2014 C1 (TOTAS),e,2.6832,167.7803,24.1242,3.042772,0.1856949,0.44717231,79.7893,06/16.0/2020,2000,g 15.5,4.0
# From MPC 91614
P/2014 E1 (Larson),e,15.9763,39.0371,186.0103,3.712407,0.1377909,0.42359365,304.9974,06/16.0/2020,2000,g 14.0,4.0
# From MPC 94280
C/2014 F3 (Sheppard-Trujillo),e,6.5476,326.8749,2.5163,16.13273,0.0152105,0.64678354,355.0254,06/16.0/2020,2000,g  6.0,4.0
# From MPC 98560
P/2014 L2 (NEOWISE),e,5.1959,149.3523,182.6301,6.303737,0.0622740,0.64793875,134.5119,06/16.0/2020,2000,g 12.0,4.0
# From MPC 90769
P/2014 L3 (Hill),e,6.2778,115.4697,178.6151,8.164549,0.0422480,0.77396849,91.9649,06/16.0/2020,2000,g 16.0,4.0
# From MPC103844
